[{"OBJECT_NAME":"TRANSPORTER-12 OBJECT AZ","OBJECT_ID":"2025-009AZ","EPOCH":"2026-03-09T17:02:46.667040","MEAN_MOTION":15.30349724,"ECCENTRICITY":9.87e-5,"INCLINATION":97.3981,"RA_OF_ASC_NODE":151.9913,"ARG_OF_PERICENTER":45.3581,"MEAN_ANOMALY":314.774,"EPHEMERIS_TYPE":0,"CLASSIFICATION_TYPE":"U","NORAD_CAT_ID":62656,"ELEMENT_SET_NO":999,"REV_AT_EPOCH":6379,"BSTAR":0.00054902545,"MEAN_MOTION_DOT":0.00016057,"MEAN_MOTION_DDOT":0},{"OBJECT_NAME":"STARLINK-35917","OBJECT_ID":"2025-263U","EPOCH":"2026-03-09T22:15:31.756896","MEAN_MOTION":15.27591879,"ECCENTRICITY":0.00013982,"INCLINATION":42.9987,"RA_OF_ASC_NODE":349.4932,"ARG_OF_PERICENTER":264.7433,"MEAN_ANOMALY":95.3259,"EPHEMERIS_TYPE":0,"CLASSIFICATION_TYPE":"U","NORAD_CAT_ID":66503,"ELEMENT_SET_NO":999,"REV_AT_EPOCH":1893,"BSTAR":0.0013425708,"MEAN_MOTION_DOT":0.00036881,"MEAN_MOTION_DDOT":0}]
